{"type": "FeatureCollection", "features": [ {"type": "Feature", "properties": {"norad_id": 34732, "name": "COSMOS 2251 DEB", "group": "cosmos-2251-debris", "lat": -33.8062788594145, "lon": -60.284284876969124, "alt_km": 720.2556267094806, "timestamp": "2025-12-04T10:51:50.501012+00:00", "meta": {"OBJECT_NAME": "COSMOS 2251 DEB", "OBJECT_ID": "1993-036ZA", "EPOCH": "2025-12-03T15:43:00.146784", "MEAN_MOTION": 14.47282993, "ECCENTRICITY": 0.00404937, "INCLINATION": 74.0445, "RA_OF_ASC_NODE": 110.1617, "ARG_OF_PERICENTER": 262.8442, "MEAN_ANOMALY": 117.6975, "EPHEMERIS_TYPE": 0, "CLASSIFICATION_TYPE": "U", "NORAD_CAT_ID": 34732, "ELEMENT_SET_NO": 999, "REV_AT_EPOCH": 88012, "BSTAR": 0.0002384475, "MEAN_MOTION_DOT": 8.53e-06, "MEAN_MOTION_DDOT": 0}, "tle": {"line1": "1 34732U 93036ZA  25337.65486281  .00000853  00000+0  23845-3 0  9990", "line2": "2 34732  74.0445 110.1617 0040493 262.8442 117.6975 14.47282993880124"}}, "geometry": {"type": "Point", "coordinates": [-60.284284876969124, -33.8062788594145]}}, {"type": "Feature", "properties": {"norad_id": 34736, "name": "COSMOS 2251 DEB", "group": "cosmos-2251-debris", "lat": -10.86691485943349, "lon": 51.12021836206099, "alt_km": 440.2594482766017, "timestamp": "2025-12-04T10:51:50.501022+00:00", "meta": {"OBJECT_NAME": "COSMOS 2251 DEB", "OBJECT_ID": "1993-036ZE", "EPOCH": "2025-12-03T16:11:50.972064", "MEAN_MOTION": 15.39194494, "ECCENTRICITY": 0.00152421, "INCLINATION": 74.0049, "RA_OF_ASC_NODE": 55.9589, "ARG_OF_PERICENTER": 354.5499, "MEAN_ANOMALY": 5.554, "EPHEMERIS_TYPE": 0, "CLASSIFICATION_TYPE": "U", "NORAD_CAT_ID": 34736, "ELEMENT_SET_NO": 999, "REV_AT_EPOCH": 88308, "BSTAR": 0.010490238, "MEAN_MOTION_DOT": 0.00432972, "MEAN_MOTION_DDOT": 0}, "tle": {"line1": "1 34736U 93036ZE  25337.67489551  .00432972  00000+0  10490-1 0  9990", "line2": "2 34736  74.0049  55.9589 0015242 354.5499   5.5540 15.39194494883088"}}, "geometry": {"type": "Point", "coordinates": [51.12021836206099, -10.86691485943349]}}, {"type": "Feature", "properties": {"norad_id": 34738, "name": "COSMOS 2251 DEB", "group": "cosmos-2251-debris", "lat": -72.368629583523, "lon": 94.33590490713067, "alt_km": 715.430564299737, "timestamp": "2025-12-04T10:51:50.501032+00:00", "meta": {"OBJECT_NAME": "COSMOS 2251 DEB", "OBJECT_ID": "1993-036ZG", "EPOCH": "2025-12-03T18:41:36.097728", "MEAN_MOTION": 14.4626769, "ECCENTRICITY": 0.00471396, "INCLINATION": 74.0141, "RA_OF_ASC_NODE": 160.0133, "ARG_OF_PERICENTER": 307.9655, "MEAN_ANOMALY": 63.1798, "EPHEMERIS_TYPE": 0, "CLASSIFICATION_TYPE": "U", "NORAD_CAT_ID": 34738, "ELEMENT_SET_NO": 999, "REV_AT_EPOCH": 87729, "BSTAR": 0.00042004802, "MEAN_MOTION_DOT": 1.497e-05, "MEAN_MOTION_DDOT": 0}, "tle": {"line1": "1 34738U 93036ZG  25337.77889002  .00001497  00000+0  42005-3 0  9991", "line2": "2 34738  74.0141 160.0133 0047139 307.9655  63.1798 14.46267690877299"}}, "geometry": {"type": "Point", "coordinates": [94.33590490713067, -72.368629583523]}}, {"type": "Feature", "properties": {"norad_id": 34750, "name": "COSMOS 2251 DEB", "group": "cosmos-2251-debris", "lat": -10.2559807320898, "lon": -145.4282898030892, "alt_km": 720.8980310489969, "timestamp": "2025-12-04T10:51:50.501042+00:00", "meta": {"OBJECT_NAME": "COSMOS 2251 DEB", "OBJECT_ID": "1993-036ZU", "EPOCH": "2025-12-04T03:17:02.789376", "MEAN_MOTION": 14.61187242, "ECCENTRICITY": 0.0039283, "INCLINATION": 74.1085, "RA_OF_ASC_NODE": 218.1273, "ARG_OF_PERICENTER": 174.1236, "MEAN_ANOMALY": 314.6241, "EPHEMERIS_TYPE": 0, "CLASSIFICATION_TYPE": "U", "NORAD_CAT_ID": 34750, "ELEMENT_SET_NO": 999, "REV_AT_EPOCH": 88105, "BSTAR": 0.0021985, "MEAN_MOTION_DOT": 0.00010935, "MEAN_MOTION_DDOT": 0}, "tle": {"line1": "1 34750U 93036ZU  25338.13683784  .00010935  00000+0  21985-2 0  9995", "line2": "2 34750  74.1085 218.1273 0039283 174.1236 314.6241 14.61187242881058"}}, "geometry": {"type": "Point", "coordinates": [-145.4282898030892, -10.2559807320898]}}, {"type": "Feature", "properties": {"norad_id": 34752, "name": "COSMOS 2251 DEB", "group": "cosmos-2251-debris", "lat": 57.539138968280454, "lon": 44.25489431912332, "alt_km": 560.4564171248076, "timestamp": "2025-12-04T10:51:50.501052+00:00", "meta": {"OBJECT_NAME": "COSMOS 2251 DEB", "OBJECT_ID": "1993-036ZW", "EPOCH": "2025-12-03T20:10:49.058112", "MEAN_MOTION": 14.99598004, "ECCENTRICITY": 0.0048352, "INCLINATION": 74.0141, "RA_OF_ASC_NODE": 18.7121, "ARG_OF_PERICENTER": 150.1715, "MEAN_ANOMALY": 210.2244, "EPHEMERIS_TYPE": 0, "CLASSIFICATION_TYPE": "U", "NORAD_CAT_ID": 34752, "ELEMENT_SET_NO": 999, "REV_AT_EPOCH": 89716, "BSTAR": 0.0018247, "MEAN_MOTION_DOT": 0.00023054, "MEAN_MOTION_DDOT": 0}, "tle": {"line1": "1 34752U 93036ZW  25337.84084558  .00023054  00000+0  18247-2 0  9991", "line2": "2 34752  74.0141  18.7121 0048352 150.1715 210.2244 14.99598004897167"}}, "geometry": {"type": "Point", "coordinates": [44.25489431912332, 57.539138968280454]}}, {"type": "Feature", "properties": {"norad_id": 34754, "name": "COSMOS 2251 DEB", "group": "cosmos-2251-debris", "lat": 3.392897789624242, "lon": -116.09662638065097, "alt_km": 738.3375052398169, "timestamp": "2025-12-04T10:51:50.501063+00:00", "meta": {"OBJECT_NAME": "COSMOS 2251 DEB", "OBJECT_ID": "1993-036ZY", "EPOCH": "2025-12-03T22:05:07.993824", "MEAN_MOTION": 14.40461173, "ECCENTRICITY": 0.0029179, "INCLINATION": 74.0309, "RA_OF_ASC_NODE": 243.9151, "ARG_OF_PERICENTER": 1.8231, "MEAN_ANOMALY": 121.8828, "EPHEMERIS_TYPE": 0, "CLASSIFICATION_TYPE": "U", "NORAD_CAT_ID": 34754, "ELEMENT_SET_NO": 999, "REV_AT_EPOCH": 88006, "BSTAR": 0.00040697, "MEAN_MOTION_DOT": 1.274e-05, "MEAN_MOTION_DDOT": 0}, "tle": {"line1": "1 34754U 93036ZY  25337.92023141  .00001274  00000+0  40697-3 0  9998", "line2": "2 34754  74.0309 243.9151 0029179   1.8231 121.8828 14.40461173880069"}}, "geometry": {"type": "Point", "coordinates": [-116.09662638065097, 3.392897789624242]}}, {"type": "Feature", "properties": {"norad_id": 34755, "name": "COSMOS 2251 DEB", "group": "cosmos-2251-debris", "lat": -73.85919965137725, "lon": -151.60033634115584, "alt_km": 898.8233671074377, "timestamp": "2025-12-04T10:51:50.501073+00:00", "meta": {"OBJECT_NAME": "COSMOS 2251 DEB", "OBJECT_ID": "1993-036ZZ", "EPOCH": "2025-11-28T15:26:25.154880", "MEAN_MOTION": 13.50483978, "ECCENTRICITY": 0.04082229, "INCLINATION": 73.9254, "RA_OF_ASC_NODE": 312.682, "ARG_OF_PERICENTER": 334.9897, "MEAN_ANOMALY": 144.2013, "EPHEMERIS_TYPE": 0, "CLASSIFICATION_TYPE": "U", "NORAD_CAT_ID": 34755, "ELEMENT_SET_NO": 999, "REV_AT_EPOCH": 82333, "BSTAR": 0.001766679, "MEAN_MOTION_DOT": 1.881e-05, "MEAN_MOTION_DDOT": 0}, "tle": {"line1": "1 34755U 93036ZZ  25332.64334670  .00001881  00000+0  17667-2 0  9999", "line2": "2 34755  73.9254 312.6820 0408222 334.9897 144.2013 13.50483978823331"}}, "geometry": {"type": "Point", "coordinates": [-151.60033634115584, -73.85919965137725]}}, {"type": "Feature", "properties": {"norad_id": 34756, "name": "COSMOS 2251 DEB", "group": "cosmos-2251-debris", "lat": 41.81901060366029, "lon": 132.87030743980765, "alt_km": 831.8639267568014, "timestamp": "2025-12-04T10:51:50.501084+00:00", "meta": {"OBJECT_NAME": "COSMOS 2251 DEB", "OBJECT_ID": "1993-036AAA", "EPOCH": "2025-12-02T16:31:05.981088", "MEAN_MOTION": 13.67210106, "ECCENTRICITY": 0.0344553, "INCLINATION": 74.0021, "RA_OF_ASC_NODE": 120.8981, "ARG_OF_PERICENTER": 358.9057, "MEAN_ANOMALY": 1.1264, "EPHEMERIS_TYPE": 0, "CLASSIFICATION_TYPE": "U", "NORAD_CAT_ID": 34756, "ELEMENT_SET_NO": 999, "REV_AT_EPOCH": 83284, "BSTAR": 0.0010550911, "MEAN_MOTION_DOT": 1.312e-05, "MEAN_MOTION_DDOT": 0}, "tle": {"line1": "1 34756U 93036AAA 25336.68826367  .00001312  00000+0  10551-2 0  9991", "line2": "2 34756  74.0021 120.8981 0344553 358.9057   1.1264 13.67210106832847"}}, "geometry": {"type": "Point", "coordinates": [132.87030743980765, 41.81901060366029]}}, {"type": "Feature", "properties": {"norad_id": 34758, "name": "COSMOS 2251 DEB", "group": "cosmos-2251-debris", "lat": 61.815251504491926, "lon": -15.048111473282711, "alt_km": 759.7726881612816, "timestamp": "2025-12-04T10:51:50.501094+00:00", "meta": {"OBJECT_NAME": "COSMOS 2251 DEB", "OBJECT_ID": "1993-036AAC", "EPOCH": "2025-12-02T23:11:46.563360", "MEAN_MOTION": 13.58027856, "ECCENTRICITY": 0.03806607, "INCLINATION": 74.1072, "RA_OF_ASC_NODE": 315.2248, "ARG_OF_PERICENTER": 81.3008, "MEAN_ANOMALY": 283.1017, "EPHEMERIS_TYPE": 0, "CLASSIFICATION_TYPE": "U", "NORAD_CAT_ID": 34758, "ELEMENT_SET_NO": 999, "REV_AT_EPOCH": 82777, "BSTAR": 0.0012020965, "MEAN_MOTION_DOT": 1.376e-05, "MEAN_MOTION_DDOT": 0}, "tle": {"line1": "1 34758U 93036AAC 25336.96651115  .00001376  00000+0  12021-2 0  9995", "line2": "2 34758  74.1072 315.2248 0380660  81.3008 283.1017 13.58027856827776"}}, "geometry": {"type": "Point", "coordinates": [-15.048111473282711, 61.815251504491926]}}, {"type": "Feature", "properties": {"norad_id": 34760, "name": "COSMOS 2251 DEB", "group": "cosmos-2251-debris", "lat": -69.39316941148984, "lon": -92.30844179473368, "alt_km": 830.698124097994, "timestamp": "2025-12-04T10:51:50.501104+00:00", "meta": {"OBJECT_NAME": "COSMOS 2251 DEB", "OBJECT_ID": "1993-036AAE", "EPOCH": "2025-12-02T15:48:08.179200", "MEAN_MOTION": 14.19524364, "ECCENTRICITY": 0.00962533, "INCLINATION": 74.0627, "RA_OF_ASC_NODE": 320.3503, "ARG_OF_PERICENTER": 14.8263, "MEAN_ANOMALY": 104.0636, "EPHEMERIS_TYPE": 0, "CLASSIFICATION_TYPE": "U", "NORAD_CAT_ID": 34760, "ELEMENT_SET_NO": 999, "REV_AT_EPOCH": 86545, "BSTAR": 0.00087310198, "MEAN_MOTION_DOT": 1.903e-05, "MEAN_MOTION_DDOT": 0}, "tle": {"line1": "1 34760U 93036AAE 25336.65842800  .00001903  00000+0  87310-3 0  9997", "line2": "2 34760  74.0627 320.3503 0096253  14.8263 104.0636 14.19524364865450"}}, "geometry": {"type": "Point", "coordinates": [-92.30844179473368, -69.39316941148984]}}]}